{"type": "FeatureCollection", "features": [ {"type": "Feature", "properties": {"norad_id": 66415, "name": "HULIANWANG DIGUI 13D", "group": "last-30-days", "lat": -10.763428505844582, "lon": -68.66161866869187, "alt_km": 806.087212301959, "timestamp": "2025-12-03T13:52:08.344964+00:00", "meta": {"OBJECT_NAME": "HULIANWANG DIGUI 13D", "OBJECT_ID": "2025-258D", "EPOCH": "2025-12-03T08:52:49.218240", "MEAN_MOTION": 14.23496659, "ECCENTRICITY": 0.00133639, "INCLINATION": 50.0039, "RA_OF_ASC_NODE": 301.3964, "ARG_OF_PERICENTER": 330.2676, "MEAN_ANOMALY": 29.7476, "EPHEMERIS_TYPE": 0, "CLASSIFICATION_TYPE": "U", "NORAD_CAT_ID": 66415, "ELEMENT_SET_NO": 999, "REV_AT_EPOCH": 332, "BSTAR": 0.00014450912, "MEAN_MOTION_DOT": 1.72e-06, "MEAN_MOTION_DDOT": 0}, "tle": {"line1": "1 66415U 25258D   25337.37001410  .00000172  00000+0  14451-3 0  9997", "line2": "2 66415  50.0039 301.3964 0013363 330.2676  29.7476 14.23496659  3322"}}, "geometry": {"type": "Point", "coordinates": [-68.66161866869187, -10.763428505844582]}}, {"type": "Feature", "properties": {"norad_id": 66416, "name": "HULIANWANG DIGUI 13E", "group": "last-30-days", "lat": -26.684960737587154, "lon": -84.39278040390614, "alt_km": 807.8399927415439, "timestamp": "2025-12-03T13:52:08.344974+00:00", "meta": {"OBJECT_NAME": "HULIANWANG DIGUI 13E", "OBJECT_ID": "2025-258E", "EPOCH": "2025-12-02T04:20:20.565312", "MEAN_MOTION": 14.23468154, "ECCENTRICITY": 0.0012751, "INCLINATION": 50.0045, "RA_OF_ASC_NODE": 306.4445, "ARG_OF_PERICENTER": 327.4493, "MEAN_ANOMALY": 32.5632, "EPHEMERIS_TYPE": 0, "CLASSIFICATION_TYPE": "U", "NORAD_CAT_ID": 66416, "ELEMENT_SET_NO": 999, "REV_AT_EPOCH": 315, "BSTAR": 0.00010445686, "MEAN_MOTION_DOT": 8e-07, "MEAN_MOTION_DDOT": 0}, "tle": {"line1": "1 66416U 25258E   25336.18079358  .00000080  00000+0  10446-3 0  9990", "line2": "2 66416  50.0045 306.4445 0012751 327.4493  32.5632 14.23468154  3151"}}, "geometry": {"type": "Point", "coordinates": [-84.39278040390614, -26.684960737587154]}}, {"type": "Feature", "properties": {"norad_id": 66417, "name": "HULIANWANG DIGUI 13F", "group": "last-30-days", "lat": -21.736827406844544, "lon": -79.02660578746959, "alt_km": 807.6136990121249, "timestamp": "2025-12-03T13:52:08.344984+00:00", "meta": {"OBJECT_NAME": "HULIANWANG DIGUI 13F", "OBJECT_ID": "2025-258F", "EPOCH": "2025-12-03T07:15:52.478208", "MEAN_MOTION": 14.23477387, "ECCENTRICITY": 0.00123527, "INCLINATION": 49.9997, "RA_OF_ASC_NODE": 301.6896, "ARG_OF_PERICENTER": 329.5642, "MEAN_ANOMALY": 30.4553, "EPHEMERIS_TYPE": 0, "CLASSIFICATION_TYPE": "U", "NORAD_CAT_ID": 66417, "ELEMENT_SET_NO": 999, "REV_AT_EPOCH": 331, "BSTAR": 0.0001383684, "MEAN_MOTION_DOT": 1.57e-06, "MEAN_MOTION_DDOT": 0}, "tle": {"line1": "1 66417U 25258F   25337.30269072  .00000157  00000+0  13837-3 0  9992", "line2": "2 66417  49.9997 301.6896 0012352 329.5642  30.4553 14.23477387  3313"}}, "geometry": {"type": "Point", "coordinates": [-79.02660578746959, -21.736827406844544]}}, {"type": "Feature", "properties": {"norad_id": 66418, "name": "HULIANWANG DIGUI 13G", "group": "last-30-days", "lat": -5.637781000184978, "lon": -64.26157626511925, "alt_km": 806.7678876196042, "timestamp": "2025-12-03T13:52:08.344996+00:00", "meta": {"OBJECT_NAME": "HULIANWANG DIGUI 13G", "OBJECT_ID": "2025-258G", "EPOCH": "2025-12-03T08:50:55.804416", "MEAN_MOTION": 14.23488734, "ECCENTRICITY": 0.00124771, "INCLINATION": 50.0011, "RA_OF_ASC_NODE": 301.3731, "ARG_OF_PERICENTER": 325.6724, "MEAN_ANOMALY": 34.3381, "EPHEMERIS_TYPE": 0, "CLASSIFICATION_TYPE": "U", "NORAD_CAT_ID": 66418, "ELEMENT_SET_NO": 999, "REV_AT_EPOCH": 332, "BSTAR": 0.00014481377, "MEAN_MOTION_DOT": 1.72e-06, "MEAN_MOTION_DDOT": 0}, "tle": {"line1": "1 66418U 25258G   25337.36870144  .00000172  00000+0  14481-3 0  9990", "line2": "2 66418  50.0011 301.3731 0012477 325.6724  34.3381 14.23488734  3326"}}, "geometry": {"type": "Point", "coordinates": [-64.26157626511925, -5.637781000184978]}}, {"type": "Feature", "properties": {"norad_id": 66419, "name": "HULIANWANG DIGUI 13H", "group": "last-30-days", "lat": 0.18797021372309852, "lon": -59.36692465059584, "alt_km": 806.6989741147681, "timestamp": "2025-12-03T13:52:08.345006+00:00", "meta": {"OBJECT_NAME": "HULIANWANG DIGUI 13H", "OBJECT_ID": "2025-258H", "EPOCH": "2025-12-03T08:48:47.998944", "MEAN_MOTION": 14.23505917, "ECCENTRICITY": 0.00121033, "INCLINATION": 50.0006, "RA_OF_ASC_NODE": 301.3619, "ARG_OF_PERICENTER": 326.8857, "MEAN_ANOMALY": 33.1297, "EPHEMERIS_TYPE": 0, "CLASSIFICATION_TYPE": "U", "NORAD_CAT_ID": 66419, "ELEMENT_SET_NO": 999, "REV_AT_EPOCH": 332, "BSTAR": 0.00014363512, "MEAN_MOTION_DOT": 1.7e-06, "MEAN_MOTION_DDOT": 0}, "tle": {"line1": "1 66419U 25258H   25337.36722221  .00000170  00000+0  14364-3 0  9991", "line2": "2 66419  50.0006 301.3619 0012103 326.8857  33.1297 14.23505917  3328"}}, "geometry": {"type": "Point", "coordinates": [-59.36692465059584, 0.18797021372309852]}}, {"type": "Feature", "properties": {"norad_id": 66420, "name": "HULIANWANG DIGUI 13J", "group": "last-30-days", "lat": 4.726832452233163, "lon": -55.544411821445564, "alt_km": 806.511410970942, "timestamp": "2025-12-03T13:52:08.345018+00:00", "meta": {"OBJECT_NAME": "HULIANWANG DIGUI 13J", "OBJECT_ID": "2025-258J", "EPOCH": "2025-12-03T08:47:07.868256", "MEAN_MOTION": 14.23473566, "ECCENTRICITY": 0.00114462, "INCLINATION": 50.0022, "RA_OF_ASC_NODE": 301.3663, "ARG_OF_PERICENTER": 333.8854, "MEAN_ANOMALY": 26.148, "EPHEMERIS_TYPE": 0, "CLASSIFICATION_TYPE": "U", "NORAD_CAT_ID": 66420, "ELEMENT_SET_NO": 999, "REV_AT_EPOCH": 331, "BSTAR": 0.00014211681, "MEAN_MOTION_DOT": 1.66e-06, "MEAN_MOTION_DDOT": 0}, "tle": {"line1": "1 66420U 25258J   25337.36606329  .00000166  00000+0  14212-3 0  9990", "line2": "2 66420  50.0022 301.3663 0011446 333.8854  26.1480 14.23473566  3310"}}, "geometry": {"type": "Point", "coordinates": [-55.544411821445564, 4.726832452233163]}}, {"type": "Feature", "properties": {"norad_id": 66421, "name": "CZ-12 R/B", "group": "last-30-days", "lat": 13.454535420638171, "lon": -50.708524645520455, "alt_km": 793.0563913008582, "timestamp": "2025-12-03T13:52:08.345029+00:00", "meta": {"OBJECT_NAME": "CZ-12 R/B", "OBJECT_ID": "2025-258K", "EPOCH": "2025-12-03T08:47:52.436832", "MEAN_MOTION": 14.42316353, "ECCENTRICITY": 0.00645794, "INCLINATION": 49.9963, "RA_OF_ASC_NODE": 298.6189, "ARG_OF_PERICENTER": 215.7159, "MEAN_ANOMALY": 143.9433, "EPHEMERIS_TYPE": 0, "CLASSIFICATION_TYPE": "U", "NORAD_CAT_ID": 66421, "ELEMENT_SET_NO": 999, "REV_AT_EPOCH": 336, "BSTAR": 3.3660508e-05, "MEAN_MOTION_DOT": -5.6e-07, "MEAN_MOTION_DDOT": 0}, "tle": {"line1": "1 66421U 25258K   25337.36657913 -.00000056  00000+0  33661-4 0  9995", "line2": "2 66421  49.9963 298.6189 0064579 215.7159 143.9433 14.42316353  3366"}}, "geometry": {"type": "Point", "coordinates": [-50.708524645520455, 13.454535420638171]}}, {"type": "Feature", "properties": {"norad_id": 66422, "name": "STARLINK-35617", "group": "last-30-days", "lat": 6.9230138357520765, "lon": -86.54878264664407, "alt_km": 423.80183613216377, "timestamp": "2025-12-03T13:52:08.345041+00:00", "meta": {"OBJECT_NAME": "STARLINK-35617", "OBJECT_ID": "2025-259A", "EPOCH": "2025-12-03T08:00:01.999872", "MEAN_MOTION": 15.48379535, "ECCENTRICITY": 0.00013317, "INCLINATION": 43.0001, "RA_OF_ASC_NODE": 102.3628, "ARG_OF_PERICENTER": 264.9576, "MEAN_ANOMALY": 340.6705, "EPHEMERIS_TYPE": 0, "CLASSIFICATION_TYPE": "U", "NORAD_CAT_ID": 66422, "ELEMENT_SET_NO": 999, "REV_AT_EPOCH": 476, "BSTAR": -0.042710248, "MEAN_MOTION_DOT": -0.02061807, "MEAN_MOTION_DDOT": 0}, "tle": {"line1": "1 66422U 25259A   25337.33335648 -.02061807  00000+0 -42710-1 0  9998", "line2": "2 66422  43.0001 102.3628 0001331 264.9576 340.6705 15.48379535  4761"}}, "geometry": {"type": "Point", "coordinates": [-86.54878264664407, 6.9230138357520765]}}, {"type": "Feature", "properties": {"norad_id": 66423, "name": "STARLINK-35618", "group": "last-30-days", "lat": 3.7166788347475657, "lon": -83.07075712937983, "alt_km": 420.4472214053458, "timestamp": "2025-12-03T13:52:08.345052+00:00", "meta": {"OBJECT_NAME": "STARLINK-35618", "OBJECT_ID": "2025-259B", "EPOCH": "2025-12-03T08:00:01.999872", "MEAN_MOTION": 15.49700608, "ECCENTRICITY": 0.0001595, "INCLINATION": 42.9998, "RA_OF_ASC_NODE": 102.3541, "ARG_OF_PERICENTER": 272.2966, "MEAN_ANOMALY": 336.891, "EPHEMERIS_TYPE": 0, "CLASSIFICATION_TYPE": "U", "NORAD_CAT_ID": 66423, "ELEMENT_SET_NO": 999, "REV_AT_EPOCH": 476, "BSTAR": -0.040493476, "MEAN_MOTION_DOT": -0.02050367, "MEAN_MOTION_DDOT": 0}, "tle": {"line1": "1 66423U 25259B   25337.33335648 -.02050367  00000+0 -40493-1 0  9994", "line2": "2 66423  42.9998 102.3541 0001595 272.2966 336.8910 15.49700608  4761"}}, "geometry": {"type": "Point", "coordinates": [-83.07075712937983, 3.7166788347475657]}}, {"type": "Feature", "properties": {"norad_id": 66424, "name": "STARLINK-35588", "group": "last-30-days", "lat": 1.4668226010431926, "lon": -80.65448647390534, "alt_km": 416.4837759302209, "timestamp": "2025-12-03T13:52:08.345076+00:00", "meta": {"OBJECT_NAME": "STARLINK-35588", "OBJECT_ID": "2025-259C", "EPOCH": "2025-12-03T08:00:01.999872", "MEAN_MOTION": 15.509416, "ECCENTRICITY": 0.0001012, "INCLINATION": 43, "RA_OF_ASC_NODE": 102.3504, "ARG_OF_PERICENTER": 254.8837, "MEAN_ANOMALY": 356.468, "EPHEMERIS_TYPE": 0, "CLASSIFICATION_TYPE": "U", "NORAD_CAT_ID": 66424, "ELEMENT_SET_NO": 999, "REV_AT_EPOCH": 476, "BSTAR": -0.035774077, "MEAN_MOTION_DOT": -0.01909393, "MEAN_MOTION_DDOT": 0}, "tle": {"line1": "1 66424U 25259C   25337.33335648 -.01909393  00000+0 -35774-1 0  9992", "line2": "2 66424  43.0000 102.3504 0001012 254.8837 356.4680 15.50941600  4767"}}, "geometry": {"type": "Point", "coordinates": [-80.65448647390534, 1.4668226010431926]}}]}